{
  "type": "FeatureCollection",
  "features": [
    {
      "type": "Feature",
      "properties": {
        "norad_id": 66662,
        "name": "2025-274N",
        "group": "last-30-days",
        "lat": -33.16013733388173,
        "lon": 90.88008468070554,
        "alt_km": 589.6135822952392,
        "timestamp": "2025-12-14T18:52:54.243048+00:00",
        "meta_object_name": "2025-274N",
        "meta_object_id": "2025-274N",
        "meta_epoch": "2025-12-13T21:01:09.885504",
        "meta_mean_motion": 14.93158466,
        "meta_eccentricity": 0.00136876,
        "meta_inclination": 97.7387,
        "meta_ra_of_asc_node": 275.0815,
        "meta_arg_of_pericenter": 277.296,
        "meta_mean_anomaly": 82.6704,
        "meta_ephemeris_type": 0,
        "meta_classification_type": "U",
        "meta_norad_cat_id": 66662,
        "meta_element_set_no": 999,
        "meta_rev_at_epoch": 257,
        "meta_bstar": 0.00037001431,
        "meta_mean_motion_dot": 3.812e-05,
        "meta_mean_motion_ddot": 0,
        "tle_line1": "1 66662U 25274N   25347.87580886  .00003812  00000+0  37001-3 0  9994",
        "tle_line2": "2 66662  97.7387 275.0815 0013687 277.2960  82.6704 14.93158466  2573"
      },
      "geometry": {
        "type": "Point",
        "coordinates": [
          90.88008468070554,
          -33.16013733388173
        ]
      }
    },
    {
      "type": "Feature",
      "properties": {
        "norad_id": 66663,
        "name": "KSLV-II R/B",
        "group": "last-30-days",
        "lat": 52.53265210777487,
        "lon": 106.3332103380968,
        "alt_km": 607.0192363272736,
        "timestamp": "2025-12-14T18:52:54.243058+00:00",
        "meta_object_name": "KSLV-II R/B",
        "meta_object_id": "2025-274P",
        "meta_epoch": "2025-12-13T18:15:29.970720",
        "meta_mean_motion": 14.97315087,
        "meta_eccentricity": 0.00531336,
        "meta_inclination": 97.7412,
        "meta_ra_of_asc_node": 275.0935,
        "meta_arg_of_pericenter": 316.033,
        "meta_mean_anomaly": 43.6671,
        "meta_ephemeris_type": 0,
        "meta_classification_type": "U",
        "meta_norad_cat_id": 66663,
        "meta_element_set_no": 999,
        "meta_rev_at_epoch": 256,
        "meta_bstar": 0.00062362937,
        "meta_mean_motion_dot": 7.387e-05,
        "meta_mean_motion_ddot": 0,
        "tle_line1": "1 66663U 25274P   25347.76076355  .00007387  00000+0  62363-3 0  9994",
        "tle_line2": "2 66663  97.7412 275.0935 0053133 316.0330  43.6671 14.97315087  2566"
      },
      "geometry": {
        "type": "Point",
        "coordinates": [
          106.3332103380968,
          52.53265210777487
        ]
      }
    },
    {
      "type": "Feature",
      "properties": {
        "norad_id": 66664,
        "name": "SOYUZ-MS 28",
        "group": "last-30-days",
        "lat": -44.98743879492876,
        "lon": 79.97283221267558,
        "alt_km": 420.7728750744873,
        "timestamp": "2025-12-14T18:52:54.243072+00:00",
        "meta_object_name": "SOYUZ-MS 28",
        "meta_object_id": "2025-275A",
        "meta_epoch": "2025-12-13T21:29:24.134208",
        "meta_mean_motion": 15.49578,
        "meta_eccentricity": 0.00032568,
        "meta_inclination": 51.6304,
        "meta_ra_of_asc_node": 136.7564,
        "meta_arg_of_pericenter": 246.2023,
        "meta_mean_anomaly": 113.8624,
        "meta_ephemeris_type": 0,
        "meta_classification_type": "U",
        "meta_norad_cat_id": 66664,
        "meta_element_set_no": 999,
        "meta_rev_at_epoch": 128,
        "meta_bstar": 0.00022109287,
        "meta_mean_motion_dot": 0.00011998,
        "meta_mean_motion_ddot": 0,
        "tle_line1": "1 66664U 25275A   25347.89541822  .00011998  00000+0  22109-3 0  9993",
        "tle_line2": "2 66664  51.6304 136.7564 0003256 246.2023 113.8624 15.49578000  1281"
      },
      "geometry": {
        "type": "Point",
        "coordinates": [
          79.97283221267558,
          -44.98743879492876
        ]
      }
    },
    {
      "type": "Feature",
      "properties": {
        "norad_id": 66791,
        "name": "STARLINK-35867",
        "group": "last-30-days",
        "lat": -29.549228620050318,
        "lon": 96.93961667402756,
        "alt_km": 308.72650298516237,
        "timestamp": "2025-12-14T18:52:54.243248+00:00",
        "meta_object_name": "STARLINK-35867",
        "meta_object_id": "2025-278A",
        "meta_epoch": "2025-12-13T10:15:37.301184",
        "meta_mean_motion": 15.88325617,
        "meta_eccentricity": 0.0012697,
        "meta_inclination": 42.9973,
        "meta_ra_of_asc_node": 247.8863,
        "meta_arg_of_pericenter": 344.0159,
        "meta_mean_anomaly": 16.0313,
        "meta_ephemeris_type": 0,
        "meta_classification_type": "U",
        "meta_norad_cat_id": 66791,
        "meta_element_set_no": 999,
        "meta_rev_at_epoch": 194,
        "meta_bstar": 0.0023805818,
        "meta_mean_motion_dot": 0.00742252,
        "meta_mean_motion_ddot": 0,
        "tle_line1": "1 66791U 25278A   25347.42751506  .00742252  00000+0  23806-2 0  9996",
        "tle_line2": "2 66791  42.9973 247.8863 0012697 344.0159  16.0313 15.88325617  1948"
      },
      "geometry": {
        "type": "Point",
        "coordinates": [
          96.93961667402756,
          -29.549228620050318
        ]
      }
    },
    {
      "type": "Feature",
      "properties": {
        "norad_id": 66792,
        "name": "STARLINK-35990",
        "group": "last-30-days",
        "lat": -42.161460329528836,
        "lon": 135.76537657966708,
        "alt_km": 278.94644858502215,
        "timestamp": "2025-12-14T18:52:54.243260+00:00",
        "meta_object_name": "STARLINK-35990",
        "meta_object_id": "2025-278B",
        "meta_epoch": "2025-12-13T01:11:23.764704",
        "meta_mean_motion": 15.89439223,
        "meta_eccentricity": 0.00042805,
        "meta_inclination": 42.9971,
        "meta_ra_of_asc_node": 250.2153,
        "meta_arg_of_pericenter": 252.276,
        "meta_mean_anomaly": 107.7648,
        "meta_ephemeris_type": 0,
        "meta_classification_type": "U",
        "meta_norad_cat_id": 66792,
        "meta_element_set_no": 999,
        "meta_rev_at_epoch": 188,
        "meta_bstar": 0.0072177431,
        "meta_mean_motion_dot": 0.02531554,
        "meta_mean_motion_ddot": 0,
        "tle_line1": "1 66792U 25278B   25347.04958061  .02531554  00000+0  72177-2 0  9998",
        "tle_line2": "2 66792  42.9971 250.2153 0004280 252.2760 107.7648 15.89439223  1886"
      },
      "geometry": {
        "type": "Point",
        "coordinates": [
          135.76537657966708,
          -42.161460329528836
        ]
      }
    },
    {
      "type": "Feature",
      "properties": {
        "norad_id": 66793,
        "name": "STARLINK-36051",
        "group": "last-30-days",
        "lat": -16.834916011665975,
        "lon": 78.46698170532599,
        "alt_km": 325.35190668122596,
        "timestamp": "2025-12-14T18:52:54.243274+00:00",
        "meta_object_name": "STARLINK-36051",
        "meta_object_id": "2025-278C",
        "meta_epoch": "2025-12-13T20:49:34.901184",
        "meta_mean_motion": 15.8460337,
        "meta_eccentricity": 0.00040454,
        "meta_inclination": 42.9966,
        "meta_ra_of_asc_node": 245.1627,
        "meta_arg_of_pericenter": 286.0579,
        "meta_mean_anomaly": 73.9848,
        "meta_ephemeris_type": 0,
        "meta_classification_type": "U",
        "meta_norad_cat_id": 66793,
        "meta_element_set_no": 999,
        "meta_rev_at_epoch": 201,
        "meta_bstar": -0.0053576145,
        "meta_mean_motion_dot": -0.01144133,
        "meta_mean_motion_ddot": 0,
        "tle_line1": "1 66793U 25278C   25347.86776506 -.01144133  00000+0 -53576-2 0  9997",
        "tle_line2": "2 66793  42.9966 245.1627 0004045 286.0579  73.9848 15.84603370  2015"
      },
      "geometry": {
        "type": "Point",
        "coordinates": [
          78.46698170532599,
          -16.834916011665975
        ]
      }
    },
    {
      "type": "Feature",
      "properties": {
        "norad_id": 66794,
        "name": "STARLINK-36062",
        "group": "last-30-days",
        "lat": -15.444714747630819,
        "lon": 76.77257799729745,
        "alt_km": 322.7923120740006,
        "timestamp": "2025-12-14T18:52:54.243285+00:00",
        "meta_object_name": "STARLINK-36062",
        "meta_object_id": "2025-278D",
        "meta_epoch": "2025-12-13T20:50:16.274688",
        "meta_mean_motion": 15.84606272,
        "meta_eccentricity": 0.00027781,
        "meta_inclination": 42.9968,
        "meta_ra_of_asc_node": 245.1683,
        "meta_arg_of_pericenter": 243.3062,
        "meta_mean_anomaly": 116.7526,
        "meta_ephemeris_type": 0,
        "meta_classification_type": "U",
        "meta_norad_cat_id": 66794,
        "meta_element_set_no": 999,
        "meta_rev_at_epoch": 201,
        "meta_bstar": -0.0045763654,
        "meta_mean_motion_dot": -0.00976185,
        "meta_mean_motion_ddot": 0,
        "tle_line1": "1 66794U 25278D   25347.86824392 -.00976185  00000+0 -45764-2 0  9994",
        "tle_line2": "2 66794  42.9968 245.1683 0002778 243.3062 116.7526 15.84606272  2017"
      },
      "geometry": {
        "type": "Point",
        "coordinates": [
          76.77257799729745,
          -15.444714747630819
        ]
      }
    }
  ]
}